ONEWEB-0331             
1 49198U 21083N   25287.30745658  .00000048  00000+0  89176-4 0  9993
2 49198  87.9231  24.2741 0001838  89.0839 271.0504 13.18687398197606
ONEWEB-0333             
1 49199U 21083P   25287.23889081  .00000058  00000+0  12517-3 0  9990
2 49199  87.9035   9.1356 0001793 103.0871 257.0459 13.13469095198629
ONEWEB-0334             
1 49200U 21083Q   25287.16023055 -.00000022  00000+0 -86782-4 0  9995
2 49200  87.9214 323.5293 0001886 126.6123 233.5184 13.20769445204316
ONEWEB-0335             
1 49201U 21083R   25287.23381146  .00000142  00000+0  35322-3 0  9996
2 49201  87.9039   9.1243 0001827  94.6693 265.4644 13.13469378198631
ONEWEB-0336             
1 49202U 21083S   25287.28121214  .00000066  00000+0  14457-3 0  9991
2 49202  87.9039   9.1098 0001936  88.0777 272.0574 13.13469519198634
ONEWEB-0337             
1 49203U 21083T   25287.29123564  .00000297  00000+0  77836-3 0  9999
2 49203  87.9047   9.1150 0002029  96.4093 263.7268 13.13470303198631
ONEWEB-0338             
1 49204U 21083U   25287.13499671  .00000065  00000+0  12896-3 0  9996
2 49204  87.9220 323.5351 0001888 105.1581 254.9761 13.20772133204332
ONEWEB-0339             
1 49205U 21083V   25287.29983028  .00000349  00000+0  92048-3 0  9990
2 49205  87.9044   9.0963 0001950 103.8785 256.2562 13.13471111198614
